STARLINK-30368          
1 57752U 23131W   25271.15042322  .00004246  00000+0  32922-3 0  9998
2 57752  43.0037 334.9828 0000911 248.3775 111.6970 15.02536852115479
STARLINK-30343          
1 57753U 23131X   25271.26006919 -.00000085  00000+0  87759-5 0  9991
2 57753  43.0064 334.1206 0001289 269.8210  90.2485 15.02537794115494
STARLINK-30397          
1 57771U 23134A   25271.59531695 -.00000242  00000+0 -28354-5 0  9996
2 57771  43.0027 358.6622 0000815 272.5559  87.5190 15.02534594115089
STARLINK-30354          
1 57772U 23134B   25271.54203846  .00001946  00000+0  15912-3 0  9990
2 57772  43.0058 358.2622 0001592 280.4877  79.5786 15.02537182115082
STARLINK-30383          
1 57773U 23134C   25271.59199113  .00002992  00000+0  23645-3 0  9991
2 57773  43.0021 358.6364 0000623 241.9994 118.0786 15.02533699115084
STARLINK-30384          
1 57774U 23134D   25271.31941423  .00001181  00000+0  10249-3 0  9996
2 57774  43.0057   0.0324 0001341 267.2324  92.8365 15.02533796115040
STARLINK-30305          
1 57775U 23134E   25271.25627011 -.00000326  00000+0 -90330-5 0  9997
2 57775  43.0043   0.4179 0001405 275.0270  85.0412 15.02532071115037
STARLINK-30360          
1 57776U 23134F   25271.71494218  .00001118  00000+0  97814-4 0  9991
2 57776  43.0028 357.8364 0001105 251.6742 108.3980 15.02546061115108
STARLINK-30355          
1 57777U 23134G   25271.64179643  .00000561  00000+0  56609-4 0  9994
2 57777  43.0065 358.1247 0001621 270.3597  89.7060 15.02554676115082
STARLINK-30385          
1 57778U 23134H   25271.66207141  .00000626  00000+0  61407-4 0  9996
2 57778  43.0068 345.4500 0001921 276.9960  83.0664 15.02536216115083
STARLINK-30359          
1 57779U 23134J   25270.52530030 -.00000344  00000+0 -10400-4 0  9993
2 57779  43.0036 351.5744 0000910 266.2557  93.8181 15.02531430115073
STARLINK-30380          
1 57780U 23134K   25271.61517418  .00001382  00000+0  11738-3 0  9996
2 57780  43.0043 357.9428 0001362 266.6991  93.3696 15.02537486115095
STARLINK-30369          
1 57781U 23134L   25271.70495609  .00001200  00000+0  10388-3 0  9993
2 57781  43.0030 357.7527 0000916 253.4535 106.6206 15.02540201115108
STARLINK-30376          
1 57782U 23134M   25271.28612093  .00000102  00000+0  22652-4 0  9993
2 57782  43.0049 359.7841 0001669 276.9957  83.0696 15.02529512115040
STARLINK-30389          
1 57783U 23134N   25271.63182434 -.00001727  00000+0 -11276-3 0  9999
2 57783  43.0037 358.0736 0001156 276.0642  84.0069 15.02551765115091
STARLINK-30388          
1 57784U 23134P   25271.69497103  .00003395  00000+0  26623-3 0  9991
2 57784  43.0067 357.6906 0002414 277.9370  82.1198 15.02541502115107
STARLINK-30381          
1 57785U 23134Q   25270.60800798  .00002052  00000+0  16690-3 0  9992
2 57785  43.0052   3.2021 0001335 265.9176  94.1514 15.02536944114946
STARLINK-30382          
1 57786U 23134R   25271.69164352  .00001749  00000+0  14451-3 0  9997
2 57786  43.0062 357.6659 0001327 277.6743  82.3948 15.02537520115102
STARLINK-30378          
1 57787U 23134S   25271.53538055  .00002699  00000+0  21480-3 0  9991
2 57787  43.0042 358.2109 0000863 234.1771 125.8992 15.02533181115089
STARLINK-30387          
1 57788U 23134T   25271.65862968  .00002648  00000+0  21106-3 0  9997
2 57788  43.0043 344.6104 0001305 265.7212  94.3482 15.02526153115251
STARLINK-30372          
1 57789U 23134U   25271.36975393  .00000236  00000+0  18081-4 0  9993
2 57789  43.0027 275.0711 0001090 274.1335  85.9392 15.27591957116041
STARLINK-30367          
1 57791U 23134W   25271.54536687  .00001198  00000+0  10373-3 0  9998
2 57791  43.0019 358.2794 0001228 199.5441 160.5355 15.02540652115082
STARLINK-30304          
1 57808U 23138A   25272.11175874  .00676225  19835-3  16312-2 0  9999
2 57808  42.9788 230.8064 0023356 160.2466 199.9320 15.95069920116259
STARLINK-30374          
1 57809U 23138B   25271.76066827  .00001200  00000+0  10384-3 0  9996
2 57809  43.0031  36.2948 0000993 240.6886 119.3857 15.02541403114352
STARLINK-30394          
1 57810U 23138C   25271.82381556  .00001409  00000+0  11930-3 0  9993
2 57810  43.0012  35.9129 0000957 270.8171  89.2562 15.02542722114265
STARLINK-30379          
1 57811U 23138D   25271.75401739  .00000453  00000+0  48591-4 0  9994
2 57811  43.0024  36.2462 0000832 225.9951 134.0823 15.02537432114353
STARLINK-30395          
1 57812U 23138E   25271.75066742  .00001601  00000+0  13347-3 0  9992
2 57812  43.0024  36.2203 0001188 270.9268  89.1438 15.02552895114355
STARLINK-30403          
1 57813U 23138F   25271.74735033  .00001136  00000+0  99166-4 0  9995
2 57813  43.0053  36.1963 0001446 260.6911  99.3768 15.02540552114253
STARLINK-30413          
1 57814U 23138G   25271.79384836  .00000151  00000+0  26267-4 0  9990
2 57814  43.0018  35.6887 0000716 225.4154 134.6630 15.02544405114365
STARLINK-30398          
1 57815U 23138H   25271.81049737  .00002154  00000+0  17447-3 0  9996
2 57815  43.0027  35.8107 0001095 280.5235  79.5483 15.02541810114265
STARLINK-30386          
1 57816U 23138J   25271.40830413  .00005443  00000+0  41786-3 0  9998
2 57816  43.0047  37.9533 0001395 272.6125  87.4557 15.02517392114120
STARLINK-30391          
1 57817U 23138K   25271.67087946  .00002077  00000+0  16873-3 0  9992
2 57817  43.0025  36.4835 0001263 265.9208  94.1490 15.02543814114340
STARLINK-30401          
1 57818U 23138L   25271.80050939  .00005263  00000+0  40441-3 0  9998
2 57818  43.0015  35.7346 0001071 284.0961  75.9762 15.02534390114263
STARLINK-30390          
1 57819U 23138M   25271.79718109  .00001893  00000+0  15515-3 0  9996
2 57819  43.0043  35.7095 0001323 268.3989  91.6701 15.02540365114303
STARLINK-30409          
1 57820U 23138N   25271.38499065 -.00001621  00000+0 -10493-3 0  9991
2 57820  43.0040  37.7596 0001523 271.6465  88.4203 15.02546212114249
STARLINK-30415          
1 57821U 23138P   25271.72182522  .00001946  00000+0  15911-3 0  9995
2 57821  43.0041  36.0060 0001477 269.7398  90.3275 15.02539064114350
STARLINK-30407          
1 57823U 23138R   25271.64281324  .00006636  00000+0  25031-3 0  9993
2 57823  43.0026 323.9387 0003310 256.7777 103.2706 15.27600848115181
STARLINK-30408          
1 57824U 23138S   25271.85366835  .00001342  00000+0  11438-3 0  9993
2 57824  43.0029  35.2724 0001502 267.1080  92.9591 15.02541234114368
STARLINK-30377          
1 57825U 23138T   25271.70406786  .00000692  00000+0  66311-4 0  9996
2 57825  43.0015  35.8709 0001209 244.4023 115.6695 15.02534642114242
STARLINK-30422          
1 57826U 23138U   25271.77387133  .00001683  00000+0  13959-3 0  9998
2 57826  43.0019  35.5328 0000931 242.1471 117.9278 15.02538720114359
STARLINK-30402          
1 57827U 23138V   25271.84479478  .00001198  00000+0  10374-3 0  9990
2 57827  43.0039  35.2087 0001733 286.9224  73.1428 15.02529132114362
STARLINK-30411          
1 57828U 23138W   25271.78052233  .00001762  00000+0  14544-3 0  9990
2 57828  43.0029  35.5640 0001041 200.8069 159.2732 15.02543179114297
STARLINK-30418          
1 57829U 23138X   25271.76721439  .00000992  00000+0  88519-4 0  9998
2 57829  43.0059  35.4878 0002010 288.4916  71.5708 15.02538673114194
STARLINK-30285          
1 57840U 23141A   25271.42160736  .00002163  00000+0  85129-4 0  9991
2 57840  53.1582 317.8662 0001195  88.0421 272.0717 15.30196966115483
STARLINK-30410          
1 57841U 23141B   25271.56486943  .00001366  00000+0  58259-4 0  9996
2 57841  53.1583 317.1499 0001321 122.5285 237.5844 15.30196479115508
STARLINK-30435          
1 57842U 23141C   25271.56804333  .00001090  00000+0  48927-4 0  9999
2 57842  53.1600 317.1978 0001140 109.0374 251.0750 15.30192547115508
STARLINK-30423          
1 57843U 23141D   25271.37631209  .00000668  00000+0  34689-4 0  9999
2 57843  53.1613 318.0897 0001334 124.1051 236.0076 15.30189700115475
STARLINK-30292          
1 57844U 23141E   25271.64487488  .00003630  00000+0  13462-3 0  9995
2 57844  53.1613 316.4259 0001416  96.5617 263.5546 15.30203119115525
STARLINK-30416          
1 57847U 23141H   25271.36261701  .00001264  00000+0  54799-4 0  9995
2 57847  53.1592 318.1721 0001067  55.0923 305.0178 15.30195592115471
STARLINK-30426          
1 57848U 23141J   25271.37947290  .00001516  00000+0  63308-4 0  9997
2 57848  53.1604 318.0731 0001304  84.8641 275.2509 15.30194369115474
STARLINK-30430          
1 57849U 23141K   25271.94729076  .00001131  00000+0  50311-4 0  9994
2 57849  53.1593 315.4658 0001174  80.8432 279.2701 15.30198442115564
STARLINK-30425          
1 57850U 23141L   25271.44795336  .00003625  00000+0  13447-3 0  9991
2 57850  53.1609 317.7954 0001451  88.1539 271.9628 15.30199527115488
STARLINK-30405          
1 57851U 23141M   25271.56172526  .00001676  00000+0  68683-4 0  9992
2 57851  53.1590 317.2721 0001036  90.7913 269.3206 15.30198325115500
STARLINK-30431          
1 57852U 23141N   25271.45420982  .00001634  00000+0  67279-4 0  9997
2 57852  53.1613 317.3641 0001348  88.4265 271.6890 15.30195459115486
STARLINK-30404          
1 57853U 23141P   25271.44999166  .00000683  00000+0  35186-4 0  9997
2 57853  53.1619 317.3390 0001527  76.7448 283.3724 15.30191983115491
STARLINK-30412          
1 57854U 23141Q   25271.39520545  .00004117  00000+0  15097-3 0  9997
2 57854  53.1613 317.7049 0001760  58.0283 302.0889 15.30215900115486
STARLINK-30392          
1 57855U 23141R   25271.39203539  .00004222  00000+0  15453-3 0  9992
2 57855  53.1613 317.6849 0001636 105.7946 254.3235 15.30217432115488
STARLINK-30291          
1 57856U 23141S   25271.54590554  .00000325  00000+0  23088-4 0  9990
2 57856  53.1601 317.2238 0001276  95.4492 264.6655 15.30196094115508
STARLINK-30424          
1 57857U 23141T   25271.35090140  .00001105  00000+0  49433-4 0  9995
2 57857  53.1601 292.1738 0001320  89.2415 270.8737 15.30198234115835
